STARLINK-36439          
1 67624U 26020H   26043.70393844  .00568445  00000+0  25403-2 0  9995
2 67624  42.9975 293.9383 0004673 247.0452 112.9926 15.81916579  2143
STARLINK-36438          
1 67625U 26020J   26044.50003471 -.00012061  00000+0 -71144-4 0  9994
2 67625  42.9991 289.1737 0002060 243.1435 290.7336 15.76373823  3502
STARLINK-36436          
1 67626U 26020K   26044.14371640  .00290831  00000+0  13329-2 0  9991
2 67626  42.9975 291.2137 0002119 250.5687 109.4956 15.82095013  2219
STARLINK-36502          
1 67627U 26020L   26044.14444541  .00255745  00000+0  11768-2 0  9993
2 67627  42.9985 291.2181 0002481 254.5160 105.5438 15.82101917  2215
STARLINK-36532          
1 67628U 26020M   26044.14248284  .00319062  00000+0  14562-2 0  9998
2 67628  42.9978 291.2023 0002800 238.7515 121.3082 15.82108813  2219
STARLINK-36367          
1 67629U 26020N   26044.14298069  .00221842  00000+0  10271-2 0  9996
2 67629  42.9982 291.2074 0001662 311.2982  48.7746 15.82062687  2218
STARLINK-36416          
1 67630U 26020P   26044.50003471 -.00030167  00000+0 -18277-3 0  9994
2 67630  42.9990 289.1427 0001970 272.1841 274.1325 15.76382862  3502
STARLINK-36527          
1 67631U 26020Q   26044.14139358  .00322536  00000+0  14704-2 0  9991
2 67631  42.9983 291.1942 0001888 289.6033  70.4635 15.82125482  2212
STARLINK-36633          
1 67632U 26020R   26044.14066141  .00164162  00000+0  76629-3 0  9995
2 67632  42.9982 291.1886 0001974 288.6618  71.4040 15.82047682  2219
STARLINK-36637          
1 67633U 26020S   26044.50003471 -.00024607  00000+0 -14846-3 0  9997
2 67633  42.9990 289.1113 0001808 270.3231 288.4411 15.76379272  3505
STARLINK-36617          
1 67634U 26020T   26044.13937418  .00235985  00000+0  10903-2 0  9994
2 67634  42.9980 291.1781 0001953 250.8114 109.2546 15.82068570  2212
STARLINK-36627          
1 67635U 26020U   26044.50003471 -.00067210  00000+0 -41235-3 0  9998
2 67635  42.9993 289.0174 0001967 268.3088 327.7803 15.76400271  3505
