CCSDS_OMM_VERS = 2.0
CREATION_DATE  = 
ORIGINATOR     = 

OBJECT_NAME    = STARLINK-36439
OBJECT_ID      = 2026-020H
CENTER_NAME    = EARTH
REF_FRAME      = TEME
TIME_SYSTEM    = UTC
MEAN_ELEMENT_THEORY = SGP/SGP4

EPOCH          = 2026-02-12T16:53:40.281216
MEAN_MOTION    = 15.81916579
ECCENTRICITY   = .00046735
INCLINATION    = 42.9975
RA_OF_ASC_NODE = 293.9383
ARG_OF_PERICENTER = 247.0452
MEAN_ANOMALY   = 112.9926

EPHEMERIS_TYPE = 0
CLASSIFICATION_TYPE = U
NORAD_CAT_ID   = 67624
ELEMENT_SET_NO = 999
REV_AT_EPOCH   = 214
BSTAR          = .25403322E-2
MEAN_MOTION_DOT = .568445E-2
MEAN_MOTION_DDOT = 0

CCSDS_OMM_VERS = 2.0
CREATION_DATE  = 
ORIGINATOR     = 

OBJECT_NAME    = STARLINK-36438
OBJECT_ID      = 2026-020J
CENTER_NAME    = EARTH
REF_FRAME      = TEME
TIME_SYSTEM    = UTC
MEAN_ELEMENT_THEORY = SGP/SGP4

EPOCH          = 2026-02-13T12:00:02.998944
MEAN_MOTION    = 15.76373823
ECCENTRICITY   = .000206
INCLINATION    = 42.9991
RA_OF_ASC_NODE = 289.1737
ARG_OF_PERICENTER = 243.1435
MEAN_ANOMALY   = 290.7336

EPHEMERIS_TYPE = 0
CLASSIFICATION_TYPE = U
NORAD_CAT_ID   = 67625
ELEMENT_SET_NO = 999
REV_AT_EPOCH   = 350
BSTAR          = -.71144E-4
MEAN_MOTION_DOT = -.12061E-3
MEAN_MOTION_DDOT = 0

CCSDS_OMM_VERS = 2.0
CREATION_DATE  = 
ORIGINATOR     = 

OBJECT_NAME    = STARLINK-36436
OBJECT_ID      = 2026-020K
CENTER_NAME    = EARTH
REF_FRAME      = TEME
TIME_SYSTEM    = UTC
MEAN_ELEMENT_THEORY = SGP/SGP4

EPOCH          = 2026-02-13T03:26:57.096960
MEAN_MOTION    = 15.82095013
ECCENTRICITY   = .0002119
INCLINATION    = 42.9975
RA_OF_ASC_NODE = 291.2137
ARG_OF_PERICENTER = 250.5687
MEAN_ANOMALY   = 109.4956

EPHEMERIS_TYPE = 0
CLASSIFICATION_TYPE = U
NORAD_CAT_ID   = 67626
ELEMENT_SET_NO = 999
REV_AT_EPOCH   = 221
BSTAR          = .13329E-2
MEAN_MOTION_DOT = .290831E-2
MEAN_MOTION_DDOT = 0

CCSDS_OMM_VERS = 2.0
CREATION_DATE  = 
ORIGINATOR     = 

OBJECT_NAME    = STARLINK-36502
OBJECT_ID      = 2026-020L
CENTER_NAME    = EARTH
REF_FRAME      = TEME
TIME_SYSTEM    = UTC
MEAN_ELEMENT_THEORY = SGP/SGP4

EPOCH          = 2026-02-13T03:28:00.083424
MEAN_MOTION    = 15.82101917
ECCENTRICITY   = .0002481
INCLINATION    = 42.9985
RA_OF_ASC_NODE = 291.2181
ARG_OF_PERICENTER = 254.5160
MEAN_ANOMALY   = 105.5438

EPHEMERIS_TYPE = 0
CLASSIFICATION_TYPE = U
NORAD_CAT_ID   = 67627
ELEMENT_SET_NO = 999
REV_AT_EPOCH   = 221
BSTAR          = .11768E-2
MEAN_MOTION_DOT = .255745E-2
MEAN_MOTION_DDOT = 0

CCSDS_OMM_VERS = 2.0
CREATION_DATE  = 
ORIGINATOR     = 

OBJECT_NAME    = STARLINK-36532
OBJECT_ID      = 2026-020M
CENTER_NAME    = EARTH
REF_FRAME      = TEME
TIME_SYSTEM    = UTC
MEAN_ELEMENT_THEORY = SGP/SGP4

EPOCH          = 2026-02-13T03:25:10.517376
MEAN_MOTION    = 15.82108813
ECCENTRICITY   = .00028009
INCLINATION    = 42.9978
RA_OF_ASC_NODE = 291.2023
ARG_OF_PERICENTER = 238.7515
MEAN_ANOMALY   = 121.3082

EPHEMERIS_TYPE = 0
CLASSIFICATION_TYPE = U
NORAD_CAT_ID   = 67628
ELEMENT_SET_NO = 999
REV_AT_EPOCH   = 221
BSTAR          = .14562096E-2
MEAN_MOTION_DOT = .319062E-2
MEAN_MOTION_DDOT = 0

CCSDS_OMM_VERS = 2.0
CREATION_DATE  = 
ORIGINATOR     = 

OBJECT_NAME    = STARLINK-36367
OBJECT_ID      = 2026-020N
CENTER_NAME    = EARTH
REF_FRAME      = TEME
TIME_SYSTEM    = UTC
MEAN_ELEMENT_THEORY = SGP/SGP4

EPOCH          = 2026-02-13T03:25:53.531616
MEAN_MOTION    = 15.82062687
ECCENTRICITY   = .00016622
INCLINATION    = 42.9982
RA_OF_ASC_NODE = 291.2074
ARG_OF_PERICENTER = 311.2982
MEAN_ANOMALY   = 48.7746

EPHEMERIS_TYPE = 0
CLASSIFICATION_TYPE = U
NORAD_CAT_ID   = 67629
ELEMENT_SET_NO = 999
REV_AT_EPOCH   = 221
BSTAR          = .10270509E-2
MEAN_MOTION_DOT = .221842E-2
MEAN_MOTION_DDOT = 0

CCSDS_OMM_VERS = 2.0
CREATION_DATE  = 
ORIGINATOR     = 

OBJECT_NAME    = STARLINK-36416
OBJECT_ID      = 2026-020P
CENTER_NAME    = EARTH
REF_FRAME      = TEME
TIME_SYSTEM    = UTC
MEAN_ELEMENT_THEORY = SGP/SGP4

EPOCH          = 2026-02-13T12:00:02.998944
MEAN_MOTION    = 15.76382862
ECCENTRICITY   = .000197
INCLINATION    = 42.9990
RA_OF_ASC_NODE = 289.1427
ARG_OF_PERICENTER = 272.1841
MEAN_ANOMALY   = 274.1325

EPHEMERIS_TYPE = 0
CLASSIFICATION_TYPE = U
NORAD_CAT_ID   = 67630
ELEMENT_SET_NO = 999
REV_AT_EPOCH   = 350
BSTAR          = -.18277E-3
MEAN_MOTION_DOT = -.30167E-3
MEAN_MOTION_DDOT = 0

CCSDS_OMM_VERS = 2.0
CREATION_DATE  = 
ORIGINATOR     = 

OBJECT_NAME    = STARLINK-36527
OBJECT_ID      = 2026-020Q
CENTER_NAME    = EARTH
REF_FRAME      = TEME
TIME_SYSTEM    = UTC
MEAN_ELEMENT_THEORY = SGP/SGP4

EPOCH          = 2026-02-13T03:23:36.405312
MEAN_MOTION    = 15.82125482
ECCENTRICITY   = .00018883
INCLINATION    = 42.9983
RA_OF_ASC_NODE = 291.1942
ARG_OF_PERICENTER = 289.6033
MEAN_ANOMALY   = 70.4635

EPHEMERIS_TYPE = 0
CLASSIFICATION_TYPE = U
NORAD_CAT_ID   = 67631
ELEMENT_SET_NO = 999
REV_AT_EPOCH   = 221
BSTAR          = .14703687E-2
MEAN_MOTION_DOT = .322536E-2
MEAN_MOTION_DDOT = 0

CCSDS_OMM_VERS = 2.0
CREATION_DATE  = 
ORIGINATOR     = 

OBJECT_NAME    = STARLINK-36633
OBJECT_ID      = 2026-020R
CENTER_NAME    = EARTH
REF_FRAME      = TEME
TIME_SYSTEM    = UTC
MEAN_ELEMENT_THEORY = SGP/SGP4

EPOCH          = 2026-02-13T03:22:33.145824
MEAN_MOTION    = 15.82047682
ECCENTRICITY   = .00019741
INCLINATION    = 42.9982
RA_OF_ASC_NODE = 291.1886
ARG_OF_PERICENTER = 288.6618
MEAN_ANOMALY   = 71.4040

EPHEMERIS_TYPE = 0
CLASSIFICATION_TYPE = U
NORAD_CAT_ID   = 67632
ELEMENT_SET_NO = 999
REV_AT_EPOCH   = 221
BSTAR          = .76629145E-3
MEAN_MOTION_DOT = .164162E-2
MEAN_MOTION_DDOT = 0

CCSDS_OMM_VERS = 2.0
CREATION_DATE  = 
ORIGINATOR     = 

OBJECT_NAME    = STARLINK-36637
OBJECT_ID      = 2026-020S
CENTER_NAME    = EARTH
REF_FRAME      = TEME
TIME_SYSTEM    = UTC
MEAN_ELEMENT_THEORY = SGP/SGP4

EPOCH          = 2026-02-13T12:00:02.998944
MEAN_MOTION    = 15.76379272
ECCENTRICITY   = .0001808
INCLINATION    = 42.9990
RA_OF_ASC_NODE = 289.1113
ARG_OF_PERICENTER = 270.3231
MEAN_ANOMALY   = 288.4411

EPHEMERIS_TYPE = 0
CLASSIFICATION_TYPE = U
NORAD_CAT_ID   = 67633
ELEMENT_SET_NO = 999
REV_AT_EPOCH   = 350
BSTAR          = -.14846E-3
MEAN_MOTION_DOT = -.24607E-3
MEAN_MOTION_DDOT = 0

CCSDS_OMM_VERS = 2.0
CREATION_DATE  = 
ORIGINATOR     = 

OBJECT_NAME    = STARLINK-36617
OBJECT_ID      = 2026-020T
CENTER_NAME    = EARTH
REF_FRAME      = TEME
TIME_SYSTEM    = UTC
MEAN_ELEMENT_THEORY = SGP/SGP4

EPOCH          = 2026-02-13T03:20:41.929152
MEAN_MOTION    = 15.82068570
ECCENTRICITY   = .00019536
INCLINATION    = 42.9980
RA_OF_ASC_NODE = 291.1781
ARG_OF_PERICENTER = 250.8114
MEAN_ANOMALY   = 109.2546

EPHEMERIS_TYPE = 0
CLASSIFICATION_TYPE = U
NORAD_CAT_ID   = 67634
ELEMENT_SET_NO = 999
REV_AT_EPOCH   = 221
BSTAR          = .10902597E-2
MEAN_MOTION_DOT = .235985E-2
MEAN_MOTION_DDOT = 0

CCSDS_OMM_VERS = 2.0
CREATION_DATE  = 
ORIGINATOR     = 

OBJECT_NAME    = STARLINK-36627
OBJECT_ID      = 2026-020U
CENTER_NAME    = EARTH
REF_FRAME      = TEME
TIME_SYSTEM    = UTC
MEAN_ELEMENT_THEORY = SGP/SGP4

EPOCH          = 2026-02-13T12:00:02.998944
MEAN_MOTION    = 15.76400271
ECCENTRICITY   = .0001967
INCLINATION    = 42.9993
RA_OF_ASC_NODE = 289.0174
ARG_OF_PERICENTER = 268.3088
MEAN_ANOMALY   = 327.7803

EPHEMERIS_TYPE = 0
CLASSIFICATION_TYPE = U
NORAD_CAT_ID   = 67635
ELEMENT_SET_NO = 999
REV_AT_EPOCH   = 350
BSTAR          = -.41235E-3
MEAN_MOTION_DOT = -.6721E-3
MEAN_MOTION_DDOT = 0

